STARLINK-30076          
1 56839U 23079S   26121.16436689  .00001911  00000+0  78957-4 0  9998
2 56839  42.9990 170.6793 0001573 273.7022  86.3650 15.27581931160915
STARLINK-30073          
1 56840U 23079T   26121.16670139  .00055347  00000+0  20073-2 0  9996
2 56840  43.0024 356.0121 0001653 274.2905 289.5089 15.27554676  5891
STARLINK-30078          
1 56841U 23079U   26121.03300847  .00000630  00000+0  32432-4 0  9998
2 56841  43.0010 123.7571 0001240 275.8001  84.2710 15.27576305161450
STARLINK-30135          
1 56842U 23079V   26121.11310155  .00001102  00000+0  49612-4 0  9994
2 56842  43.0129 171.0812 0003156 285.6801  74.3702 15.27581480160901
STARLINK-30137          
1 56843U 23079W   26121.21946057  .00004689  00000+0  17978-3 0  9994
2 56843  42.9996 170.1488 0001407 277.0902  82.9789 15.27582277160922
STARLINK-30136          
1 56844U 23079X   26121.00002315  .00039567  00000+0  14401-2 0  9992
2 56844  43.0002 171.5715 0001310 269.2980 244.7855 15.27570575  5774
2023-081A               
1 56846U 23081A   26121.13886909  .00003055  00000+0  13446-3 0  9992
2 56846  97.3723 192.1032 0001864  81.9131 278.2317 15.22600826160854
2023-081W               
1 56866U 23081W   26121.15012174  .00008664  00000+0  35614-3 0  9993
2 56866  97.2927 185.9239 0011408 169.5189 190.6289 15.24349959160866
LONGJIANG 3             
1 56874U 23082A   26120.97215905  .00027272  00000+0  66574-3 0  9994
2 56874  49.1087 288.6666 0005948 202.5274 157.5415 15.40561940162081
STARLINK-6206           
1 56876U 23083A   26121.10173581  .00001094  00000+0  49281-4 0  9997
2 56876  43.0016 149.4122 0001160 269.6126  90.4593 15.27579197159649
STARLINK-6209           
1 56877U 23083B   26121.12472583  .00002580  00000+0  10323-3 0  9999
2 56877  43.0035 148.7288 0001425 292.8144  67.2557 15.27591081159657
STARLINK-6182           
1 56878U 23083C   26121.09704168  .00001241  00000+0  55911-4 0  9999
2 56878  43.0021 149.3770 0000840 291.4713  68.6048 15.26742841159643
STARLINK-5707           
1 56879U 23083D   26120.52353875  .00001184  00000+0  52543-4 0  9996
2 56879  43.0029 152.8076 0001214 269.7277  90.3435 15.27576957159555
STARLINK-6177           
1 56880U 23083E   26120.08816842  .00000690  00000+0  35402-4 0  9993
2 56880  43.0053 154.7126 0001434 293.3125  66.7576 15.26742159159494
STARLINK-5853           
1 56881U 23083F   26121.10516897 -.00000169  00000+0  33616-5 0  9993
2 56881  43.0026 149.4325 0001051 281.3363  78.7370 15.26735947159642
STARLINK-6175           
1 56882U 23083G   26121.13555670  .00000909  00000+0  43566-4 0  9994
2 56882  43.0050 148.8116 0001556 289.5705  70.4978 15.26743122159659
STARLINK-6171           
1 56883U 23083H   26121.13307523  .00000795  00000+0  39329-4 0  9992
2 56883  43.0041 148.7926 0001148 285.8495  74.2230 15.26742980159654
STARLINK-5515           
1 56884U 23083J   26121.12214762  .00001365  00000+0  59124-4 0  9993
2 56884  43.0023 148.7059 0001232 267.8370  92.2341 15.27578611159650
STARLINK-5095           
1 56885U 23083K   26121.12688700  .00007179  00000+0  27665-3 0  9994
2 56885  43.0045 148.7429 0001040 284.0456  76.0279 15.26786328159654
STARLINK-5496           
1 56886U 23083L   26120.52588925  .00000235  00000+0  18444-4 0  9998
2 56886  43.0058 151.9663 0001244 282.5997  77.4715 15.26739294159564
STARLINK-6180           
1 56887U 23083M   26121.16670139  .02111469  00000+0  76935-1 0  9999
2 56887  42.9990 152.8943 0001294 259.4858 275.1578 15.23852924  5852
STARLINK-6181           
1 56888U 23083N   26121.16670139  .00000777  00000+0  39535-4 0  9995
2 56888  43.0000 152.3998 0000923 267.9277 114.2691 15.25912471  5854
STARLINK-6169           
1 56889U 23083P   26121.12857201  .00004304  00000+0  16582-3 0  9995
2 56889  43.0016 148.7530 0001486 276.1573  83.9109 15.27585512159646
STARLINK-5528           
1 56890U 23083Q   26121.08010947  .00001425  00000+0  64307-4 0  9990
2 56890  42.9994 152.6637 0000752 294.0307  66.0466 15.25914444159604
STARLINK-6213           
1 56891U 23083R   26121.12063642  .00000432  00000+0  25797-4 0  9993
2 56891  43.0035 148.6888 0001335 266.4776  93.5923 15.26742346159656
STARLINK-6219           
1 56892U 23083S   26121.16670139  .01130651  00000+0  39311-1 0  9995
2 56892  42.9997 152.6462 0001456 270.4836   6.2954 15.26385749  5858
STARLINK-6216           
1 56893U 23083T   26121.13627102  .00003909  00000+0  15152-3 0  9998
2 56893  43.0055 148.8118 0002048 264.7970  95.2648 15.27579515159770
STARLINK-6144           
1 56894U 23083U   26121.16670139 -.00004479  00000+0 -15327-3 0  9999
2 56894  43.0004 152.2648 0001353 281.9989 156.2536 15.27591186  5807
STARLINK-6208           
1 56895U 23083V   26121.16670139 -.00000413  00000+0 -59516-5 0  9994
2 56895  42.9992 152.5839 0000949 247.0332  56.6233 15.25914211  5849
STARLINK-6202           
1 56896U 23083W   26121.16670139  .01128845  00000+0  39226-1 0  9996
2 56896  43.0002 152.5446 0001671 281.6871  37.4940 15.26409810  5851
STARLINK-6200           
1 56897U 23083X   26121.16670139  .00075762  00000+0  28797-2 0  9997
2 56897  43.0002 152.5033 0000870 301.4464  35.7698 15.25871802  5857
STARLINK-6205           
1 56898U 23083Y   26121.10133089  .00000111  00000+0  13823-4 0  9992
2 56898  43.0008 145.9859 0001057 289.0104  71.0633 15.26742797159792
STARLINK-6203           
1 56899U 23083Z   26120.53672853  .00001090  00000+0  49144-4 0  9998
2 56899  43.0040 148.6400 0001589 269.1250  90.9420 15.27580278159702
STARLINK-6207           
1 56900U 23083AA  26121.05591234  .00058023  00000+0  21254-2 0  9990
2 56900  43.0045 135.2231 0002753 314.8482  45.2146 15.27205978159779
STARLINK-6185           
1 56901U 23083AB  26120.57230236 -.00001021  00000+0 -28379-4 0  9994
2 56901  43.0033 148.8974 0001309 271.0904  88.9798 15.26746681159711
STARLINK-6195           
1 56902U 23083AC  26121.06255284  .00000673  00000+0  33964-4 0  9996
2 56902  43.0028 135.2694 0001212 272.8152  87.2561 15.27579078159919
STARLINK-6192           
1 56903U 23083AD  26121.13548830  .00001562  00000+0  66249-4 0  9997
2 56903  43.0027 145.3874 0001365 257.4774 102.5925 15.27584460159803
STARLINK-6193           
1 56904U 23083AE  26121.10739324  .00005249  00000+0  20017-3 0  9993
2 56904  43.0027 134.7455 0001370 275.6414  84.4281 15.27573217159812
STARLINK-6183           
1 56905U 23083AF  26121.07140184  .00000645  00000+0  32965-4 0  9991
2 56905  43.0018 134.4858 0001304 270.4833  89.5869 15.27577242159812
STARLINK-6098           
1 56906U 23083AG  26121.07911816  .00000948  00000+0  43937-4 0  9997
2 56906  43.0023 134.5398 0000770 263.7700  96.3064 15.27586608159812
STARLINK-6110           
1 56907U 23083AH  26121.07526301  .00002928  00000+0  11582-3 0  9999
2 56907  43.0018 134.5120 0000970 269.4563  90.6178 15.27593044159929
STARLINK-6186           
1 56908U 23083AJ  26120.50477677 -.00000144  00000+0  43026-5 0  9997
2 56908  43.0016 137.9696 0001445 276.5437  83.5250 15.27571518159722
STARLINK-5999           
1 56909U 23083AK  26120.54331954  .00001273  00000+0  55771-4 0  9991
2 56909  43.0027 138.2513 0001309 263.3334  96.7369 15.27577447159832
STARLINK-6179           
1 56910U 23083AL  26121.03557662  .00000207  00000+0  17071-4 0  9991
2 56910  43.0041 135.0668 0001724 268.9962  91.0692 15.27571243159795
STARLINK-6116           
1 56911U 23083AM  26121.08553647  .00000391  00000+0  23732-4 0  9991
2 56911  43.0023 134.5897 0000968 270.8560  89.2181 15.27575892159818
STARLINK-5805           
1 56912U 23083AN  26121.03996948  .00001585  00000+0  68738-4 0  9993
2 56912  43.0035 135.1008 0001514 270.2855  89.7823 15.26749832159805
STARLINK-5950           
1 56913U 23083AP  26121.08785124  .00000720  00000+0  36539-4 0  9995
2 56913  43.0054 134.6110 0001711 304.5800  55.4890 15.26743261159810
STARLINK-5961           
1 56914U 23083AQ  26121.07011465  .00000300  00000+0  20427-4 0  9998
2 56914  43.0017 134.4634 0000853 274.5480  85.5274 15.27578687159814
STARLINK-5965           
1 56915U 23083AR  26121.09222135  .00001610  00000+0  69676-4 0  9993
2 56915  43.0063 134.6407 0001465 280.0819  79.9867 15.26746380159815
STARLINK-5973           
1 56916U 23083AS  26121.08880148  .00000274  00000+0  19886-4 0  9990
2 56916  43.0047 134.6084 0001125 279.3595  80.7129 15.26742339159781
STARLINK-5971           
1 56917U 23083AT  26121.04637965  .00001765  00000+0  75443-4 0  9991
2 56917  43.0028 135.1481 0001523 268.2614  91.8063 15.26745888159804
STARLINK-5951           
1 56918U 23083AU  26121.08327830 -.00000329  00000+0 -25720-5 0  9994
2 56918  43.0040 134.5639 0001720 293.1048  66.9622 15.26738525159819
STARLINK-5966           
1 56919U 23083AV  26121.06426358  .00001636  00000+0  70637-4 0  9994
2 56919  43.0031 134.4203 0001276 272.2620  87.8085 15.26748428159814
STARLINK-5960           
1 56920U 23083AW  26121.02671524 -.00019412  00000+0 -70047-3 0  9996
2 56920  43.0040 135.0003 0008772 306.2665  53.7376 15.27408917159807
STARLINK-5958           
1 56921U 23083AX  26121.07782527  .00001271  00000+0  55711-4 0  9992
2 56921  43.0011 134.5218 0001002 258.6373 101.4366 15.27573726159815
STARLINK-5937           
1 56922U 23083AY  26121.05612541  .00001533  00000+0  65232-4 0  9999
2 56922  43.0014 135.2096 0001558 272.1505  87.9168 15.27576211159804
STARLINK-5952           
1 56923U 23083AZ  26121.16670139 -.00011600  00000+0 -42335-3 0  9995
2 56923  43.0009 134.0549 0000635 295.1096 178.9855 15.26748793  5892
STARLINK-5731           
1 56924U 23083BA  26121.05236744  .00031469  00000+0  11508-2 0  9994
2 56924  43.0021 135.1830 0001961 277.3158  82.7470 15.27506399159919
STARLINK-5733           
1 56925U 23083BB  26121.10330969  .00000349  00000+0  22700-4 0  9996
2 56925  43.0045 134.7133 0001802 274.4711  85.5935 15.26745116159811
